{
  "type": "FeatureCollection",
  "features": [
    {
      "type": "Feature",
      "id": "incois-2026-250-047",
      "geometry": {
        "type": "MultiLineString",
        "coordinates": [
          [
            [
              79.92768294,
              10.72624843
            ],
            [
              79.92776493,
              10.72646595
            ],
            [
              79.92784461,
              10.72668276
            ],
            [
              79.92792199,
              10.72689885
            ],
            [
              79.92799706,
              10.72711424
            ],
            [
              79.92806982,
              10.72732892
            ],
            [
              79.92814027,
              10.7275429
            ],
            [
              79.92820842,
              10.72775616
            ],
            [
              79.92827425,
              10.72796871
            ],
            [
              79.92833778,
              10.72818056
            ],
            [
              79.928399,
              10.7283917
            ],
            [
              79.92845792,
              10.72860212
            ],
            [
              79.92851452,
              10.72881184
            ],
            [
              79.92856882,
              10.72902085
            ],
            [
              79.92862081,
              10.72922916
            ],
            [
              79.92867049,
              10.72943675
            ],
            [
              79.92871786,
              10.72964363
            ],
            [
              79.92876293,
              10.72984981
            ],
            [
              79.92880569,
              10.73005528
            ],
            [
              79.92884614,
              10.73026003
            ],
            [
              79.92888428,
              10.73046408
            ],
            [
              79.92892012,
              10.73066742
            ],
            [
              79.92895364,
              10.73087006
            ],
            [
              79.92898486,
              10.73107198
            ],
            [
              79.92901378,
              10.73127319
            ],
            [
              79.92904038,
              10.7314737
            ],
            [
              79.92906467,
              10.7316735
            ],
            [
              79.92908666,
              10.73187258
            ],
            [
              79.92910634,
              10.73207096
            ],
            [
              79.92912371,
              10.73226863
            ],
            [
              79.92913878,
              10.7324656
            ],
            [
              79.92915154,
              10.73266185
            ],
            [
              79.92916198,
              10.73285739
            ],
            [
              79.92917012,
              10.73305223
            ],
            [
              79.92917596,
              10.73324636
            ],
            [
              79.92917948,
              10.73343978
            ],
            [
              79.9291807,
              10.73363248
            ],
            [
              79.92917961,
              10.73382449
            ],
            [
              79.92917621,
              10.73401578
            ],
            [
              79.92917051,
              10.73420636
            ],
            [
              79.92916249,
              10.73439624
            ],
            [
              79.92915217,
              10.7345854
            ],
            [
              79.92913954,
              10.73477386
            ],
            [
              79.9291246,
              10.73496161
            ],
            [
              79.92910736,
              10.73514865
            ],
            [
              79.9290878,
              10.73533498
            ],
            [
              79.92906594,
              10.7355206
            ],
            [
              79.92904177,
              10.73570551
            ],
            [
              79.9290153,
              10.73588972
            ],
            [
              79.92898651,
              10.73607321
            ],
            [
              79.92895542,
              10.736256
            ],
            [
              79.92892202,
              10.73643808
            ],
            [
              79.92888631,
              10.73661945
            ],
            [
              79.9288483,
              10.73680011
            ],
            [
              79.92880797,
              10.73698006
            ],
            [
              79.92876534,
              10.73715931
            ],
            [
              79.9287204,
              10.73733784
            ],
            [
              79.92867315,
              10.73751567
            ],
            [
              79.9286236,
              10.73769278
            ],
            [
              79.92857174,
              10.73786919
            ],
            [
              79.92851757,
              10.73804489
            ],
            [
              79.92846109,
              10.73821988
            ],
            [
              79.9284023,
              10.73839417
            ],
            [
              79.92834121,
              10.73856774
            ],
            [
              79.9282778,
              10.7387406
            ],
            [
              79.92820009,
              10.73894137
            ],
            [
              79.92811677,
              10.73914332
            ],
            [
              79.92802785,
              10.73934644
            ],
            [
              79.92793331,
              10.73955076
            ],
            [
              79.92783316,
              10.73975627
            ],
            [
              79.92772739,
              10.739963
            ],
            [
              79.92761598,
              10.74017097
            ],
            [
              79.92749894,
              10.74038017
            ],
            [
              79.92737627,
              10.74059061
            ],
            [
              79.92724793,
              10.74080234
            ],
            [
              79.92711393,
              10.74101536
            ],
            [
              79.92697424,
              10.74122972
            ],
            [
              79.92682884,
              10.74144543
            ],
            [
              79.92667772,
              10.74166253
            ],
            [
              79.92652085,
              10.74188106
            ],
            [
              79.92635819,
              10.74210106
            ],
            [
              79.92619056,
              10.74232147
            ],
            [
              79.92601714,
              10.74254343
            ],
            [
              79.92583786,
              10.74276702
            ],
            [
              79.92565268,
              10.74299229
            ],
            [
              79.92546154,
              10.74321932
            ],
            [
              79.92526433,
              10.74344822
            ],
            [
              79.92506097,
              10.74367911
            ],
            [
              79.92485132,
              10.74391214
            ],
            [
              79.92463579,
              10.74414686
            ],
            [
              79.92441367,
              10.74438408
            ],
            [
              79.92418473,
              10.74462404
            ],
            [
              79.92394866,
              10.74486706
            ],
            [
              79.92370528,
              10.74511333
            ],
            [
              79.92345388,
              10.74536358
            ],
            [
              79.92319381,
              10.74561846
            ],
            [
              79.92292402,
              10.74587899
            ],
            [
              79.92278824,
              10.74600688
            ],
            [
              79.92264904,
              10.74613343
            ],
            [
              79.92250637,
              10.74625869
            ],
            [
              79.92236015,
              10.74638273
            ],
            [
              79.92221033,
              10.7465056
            ],
            [
              79.9220568,
              10.74662737
            ],
            [
              79.92189947,
              10.74674812
            ],
            [
              79.92173824,
              10.74686794
            ],
            [
              79.92157319,
              10.74698676
            ],
            [
              79.92140399,
              10.74710484
            ],
            [
              79.9212305,
              10.74722226
            ],
            [
              79.92105254,
              10.74733915
            ],
            [
              79.92086996,
              10.74745562
            ],
            [
              79.92068248,
              10.74757183
            ],
            [
              79.92048985,
              10.74768796
            ],
            [
              79.92029172,
              10.7478042
            ],
            [
              79.92011202,
              10.74790704
            ],
            [
              79.91992743,
              10.74801033
            ],
            [
              79.91973759,
              10.74811426
            ],
            [
              79.91954202,
              10.74821909
            ],
            [
              79.91934042,
              10.748325
            ],
            [
              79.91913182,
              10.7484325
            ],
            [
              79.91868971,
              10.74865424
            ],
            [
              79.91827505,
              10.74885608
            ],
            [
              79.91781172,
              10.7490764
            ],
            [
              79.91734663,
              10.74929386
            ],
            [
              79.91611567,
              10.74986483
            ],
            [
              79.91575136,
              10.75003603
            ],
            [
              79.9154252,
              10.75019144
            ],
            [
              79.91505738,
              10.75036998
            ],
            [
              79.91471572,
              10.75053975
            ],
            [
              79.91439369,
              10.75070399
            ],
            [
              79.914088,
              10.7508644
            ],
            [
              79.91372828,
              10.75105973
            ],
            [
              79.91338661,
              10.75125291
            ],
            [
              79.91322177,
              10.75134914
            ],
            [
              79.91306066,
              10.75144527
            ],
            [
              79.91290309,
              10.75154143
            ],
            [
              79.91274891,
              10.7516377
            ],
            [
              79.91259775,
              10.75173433
            ],
            [
              79.91244971,
              10.75183124
            ],
            [
              79.91230468,
              10.75192852
            ],
            [
              79.91216257,
              10.75202622
            ],
            [
              79.91202327,
              10.75212442
            ],
            [
              79.91188672,
              10.75222317
            ],
            [
              79.91175284,
              10.75232252
            ],
            [
              79.91162158,
              10.75242251
            ],
            [
              79.91136324,
              10.75262382
            ],
            [
              79.9111046,
              10.75282917
            ],
            [
              79.91084562,
              10.75303862
            ],
            [
              79.91058622,
              10.7532522
            ],
            [
              79.91032636,
              10.75346997
            ],
            [
              79.91006597,
              10.75369197
            ],
            [
              79.90980498,
              10.75391827
            ],
            [
              79.90954331,
              10.75414893
            ],
            [
              79.90928097,
              10.75438395
            ],
            [
              79.90901779,
              10.75462347
            ],
            [
              79.90875368,
              10.75486758
            ],
            [
              79.90848853,
              10.75511638
            ],
            [
              79.90822224,
              10.75536996
            ],
            [
              79.90795469,
              10.75562844
            ],
            [
              79.90768573,
              10.75589195
            ],
            [
              79.90741523,
              10.75616065
            ],
            [
              79.90714565,
              10.75643201
            ],
            [
              79.90687421,
              10.75670878
            ],
            [
              79.90660072,
              10.75699117
            ],
            [
              79.90632495,
              10.7572794
            ],
            [
              79.90604672,
              10.75757368
            ],
            [
              79.90576568,
              10.75787437
            ],
            [
              79.9054815,
              10.75818181
            ],
            [
              79.90519379,
              10.75849642
            ],
            [
              79.90490346,
              10.75881721
            ],
            [
              79.90460866,
              10.75914618
            ],
            [
              79.90430878,
              10.75948402
            ],
            [
              79.904003,
              10.75983164
            ],
            [
              79.90369084,
              10.76018958
            ],
            [
              79.90337057,
              10.76055984
            ],
            [
              79.90304063,
              10.7609442
            ],
            [
              79.9026986,
              10.76134548
            ],
            [
              79.90239926,
              10.76169992
            ],
            [
              79.90210207,
              10.76205596
            ],
            [
              79.90180708,
              10.76241355
            ],
            [
              79.90151433,
              10.76277264
            ],
            [
              79.90122385,
              10.76313317
            ],
            [
              79.90093568,
              10.76349511
            ],
            [
              79.90064988,
              10.7638584
            ],
            [
              79.90036646,
              10.76422299
            ],
            [
              79.90008549,
              10.76458882
            ],
            [
              79.89980698,
              10.76495586
            ],
            [
              79.89953098,
              10.76532406
            ],
            [
              79.89925752,
              10.76569336
            ],
            [
              79.89898664,
              10.76606373
            ],
            [
              79.89871836,
              10.76643512
            ],
            [
              79.89845273,
              10.76680748
            ],
            [
              79.89818977,
              10.76718076
            ],
            [
              79.89792956,
              10.76755486
            ],
            [
              79.89767209,
              10.76792979
            ],
            [
              79.89741739,
              10.76830551
            ],
            [
              79.89716548,
              10.76868198
            ],
            [
              79.8969164,
              10.76905916
            ],
            [
              79.89667017,
              10.769437
            ],
            [
              79.89642682,
              10.76981546
            ],
            [
              79.89618637,
              10.7701945
            ],
            [
              79.89594887,
              10.77057406
            ],
            [
              79.89571432,
              10.77095413
            ],
            [
              79.89548276,
              10.77133466
            ],
            [
              79.8952542,
              10.7717156
            ],
            [
              79.89502867,
              10.77209692
            ],
            [
              79.89480619,
              10.77247859
            ],
            [
              79.89458679,
              10.77286056
            ],
            [
              79.89437049,
              10.77324279
            ],
            [
              79.8941727,
              10.77359726
            ],
            [
              79.89397687,
              10.77395284
            ],
            [
              79.89378302,
              10.77430954
            ],
            [
              79.89359113,
              10.77466736
            ],
            [
              79.8934012,
              10.7750263
            ],
            [
              79.89321325,
              10.77538635
            ],
            [
              79.89302726,
              10.77574753
            ],
            [
              79.89284323,
              10.77610982
            ],
            [
              79.89266118,
              10.77647322
            ],
            [
              79.89248109,
              10.77683775
            ],
            [
              79.89230297,
              10.77720339
            ],
            [
              79.89212681,
              10.77757016
            ],
            [
              79.89195262,
              10.77793803
            ],
            [
              79.8917804,
              10.77830703
            ],
            [
              79.89161014,
              10.77867714
            ],
            [
              79.89144185,
              10.77904838
            ],
            [
              79.89127553,
              10.77942073
            ],
            [
              79.89111117,
              10.77979419
            ],
            [
              79.89094879,
              10.78016878
            ],
            [
              79.89078836,
              10.78054448
            ],
            [
              79.89062991,
              10.7809213
            ],
            [
              79.89047342,
              10.78129924
            ],
            [
              79.8903189,
              10.7816783
            ],
            [
              79.89016634,
              10.78205847
            ],
            [
              79.89001575,
              10.78243976
            ],
            [
              79.88986713,
              10.78282217
            ],
            [
              79.88972047,
              10.7832057
            ],
            [
              79.88957579,
              10.78359034
            ],
            [
              79.88943306,
              10.7839761
            ],
            [
              79.88929231,
              10.78436298
            ],
            [
              79.88915352,
              10.78475098
            ],
            [
              79.8890167,
              10.78514009
            ]
          ]
        ]
      },
      "properties": {
        "id": "incois-2026-250-047",
        "name": "INCOIS PFZ 047",
        "valid_from": "2026-09-07T00:00:00+05:30",
        "valid_until": "2026-09-08T00:00:00+05:30",
        "source": "cached INCOIS PFZ sample",
        "source_reference": "https://incois.gov.in/geoserver/PFZ_Automation/ows",
        "fetched_at": "2026-09-08T05:15:29.541014Z",
        "expires_at": "2026-09-08T00:00:00+05:30",
        "mode": "demo",
        "is_stale": false,
        "freshness_minutes": 0.0,
        "distance_km": null,
        "metadata": {
          "provider_properties": {
            "SECTORBOUN": 8,
            "SECTORBO_1": 9,
            "SECTORNAME": "",
            "Julian_day": "250",
            "Sno": "047",
            "Year": 2026,
            "UID": 2026250047.0,
            "Length": 8.27879339457
          },
          "advisory_reference": "https://incois.gov.in/MarineFisheries/TextDataHome",
          "forecast_date": "7 SEP 2026",
          "valid_upto_date": "8 SEP 2026",
          "validity_precision": "date",
          "validity_policy": "Conservative expiry at start of valid-upto date in Asia/Kolkata; exact hour is unpublished",
          "quality": "official_advisory",
          "original_source": "INCOIS PFZ WFS"
        }
      }
    },
    {
      "type": "Feature",
      "id": "incois-2026-250-046",
      "geometry": {
        "type": "MultiLineString",
        "coordinates": [
          [
            [
              79.9437443,
              10.60251646
            ],
            [
              79.94370121,
              10.60300627
            ],
            [
              79.94366387,
              10.60349521
            ],
            [
              79.94363227,
              10.60398329
            ],
            [
              79.94360641,
              10.60447051
            ],
            [
              79.94358631,
              10.60495686
            ],
            [
              79.94357194,
              10.60544235
            ],
            [
              79.94356332,
              10.60592697
            ],
            [
              79.94356045,
              10.60641073
            ],
            [
              79.94356332,
              10.60689363
            ],
            [
              79.94357194,
              10.60737566
            ],
            [
              79.94358631,
              10.60785683
            ],
            [
              79.94360641,
              10.60833713
            ],
            [
              79.94363227,
              10.60881657
            ],
            [
              79.94366387,
              10.60929515
            ],
            [
              79.94370121,
              10.60977286
            ],
            [
              79.9437443,
              10.61024971
            ],
            [
              79.94376761,
              10.61047379
            ],
            [
              79.94379447,
              10.61069941
            ],
            [
              79.94382487,
              10.61092665
            ],
            [
              79.94385883,
              10.61115562
            ],
            [
              79.94389638,
              10.61138641
            ],
            [
              79.94393752,
              10.61161917
            ],
            [
              79.94398228,
              10.61185403
            ],
            [
              79.9440307,
              10.61209114
            ],
            [
              79.94408275,
              10.61233041
            ],
            [
              79.94413851,
              10.61257227
            ],
            [
              79.94419804,
              10.61281692
            ],
            [
              79.94426139,
              10.6130646
            ],
            [
              79.94432861,
              10.61331551
            ],
            [
              79.94439979,
              10.61357001
            ],
            [
              79.94447504,
              10.61382843
            ],
            [
              79.94455446,
              10.61409117
            ],
            [
              79.94463039,
              10.61433412
            ],
            [
              79.94471001,
              10.61458144
            ],
            [
              79.94479349,
              10.61483363
            ],
            [
              79.94488103,
              10.61509129
            ],
            [
              79.94497275,
              10.61535484
            ],
            [
              79.9450691,
              10.61562551
            ],
            [
              79.94517045,
              10.61590438
            ],
            [
              79.9452774,
              10.6161931
            ],
            [
              79.94547946,
              10.61672598
            ],
            [
              79.94570884,
              10.61731606
            ],
            [
              79.945943,
              10.61790795
            ],
            [
              79.94657005,
              10.61948006
            ],
            [
              79.94675483,
              10.6199497
            ],
            [
              79.9469185,
              10.62037196
            ],
            [
              79.94710116,
              10.62085289
            ],
            [
              79.94726763,
              10.62130307
            ],
            [
              79.94742114,
              10.62173119
            ],
            [
              79.94756326,
              10.62214168
            ],
            [
              79.94764658,
              10.62239004
            ],
            [
              79.94772614,
              10.62263349
            ],
            [
              79.94780212,
              10.62287254
            ],
            [
              79.94787464,
              10.62310762
            ],
            [
              79.94794384,
              10.62333915
            ],
            [
              79.94800979,
              10.62356737
            ],
            [
              79.94807256,
              10.62379255
            ],
            [
              79.94813222,
              10.62401492
            ],
            [
              79.94818891,
              10.62423502
            ],
            [
              79.94824258,
              10.62445269
            ],
            [
              79.94829328,
              10.62466811
            ],
            [
              79.94834103,
              10.62488142
            ],
            [
              79.94838589,
              10.62509278
            ],
            [
              79.94842785,
              10.6253023
            ],
            [
              79.94846696,
              10.62551007
            ],
            [
              79.94850322,
              10.62571621
            ],
            [
              79.94860607,
              10.62634315
            ],
            [
              79.94870242,
              10.62697368
            ],
            [
              79.94879227,
              10.6276076
            ],
            [
              79.94887557,
              10.62824474
            ],
            [
              79.94895231,
              10.62888488
            ],
            [
              79.94902245,
              10.62952785
            ],
            [
              79.94908599,
              10.63017342
            ],
            [
              79.94914289,
              10.6308214
            ],
            [
              79.94919314,
              10.63147162
            ],
            [
              79.94923673,
              10.63212382
            ],
            [
              79.94927363,
              10.63277782
            ],
            [
              79.94930384,
              10.63343338
            ],
            [
              79.94932735,
              10.6340903
            ],
            [
              79.94934415,
              10.63474835
            ],
            [
              79.94935423,
              10.63540733
            ],
            [
              79.94935759,
              10.636067
            ],
            [
              79.94935423,
              10.63672725
            ],
            [
              79.94934414,
              10.63738776
            ],
            [
              79.94932734,
              10.63804829
            ],
            [
              79.94930382,
              10.63870864
            ],
            [
              79.94927361,
              10.63936857
            ],
            [
              79.94923669,
              10.64002786
            ],
            [
              79.94919309,
              10.64068628
            ],
            [
              79.94914283,
              10.64134362
            ],
            [
              79.94908592,
              10.64199964
            ],
            [
              79.94902237,
              10.64265413
            ],
            [
              79.94895222,
              10.64330686
            ],
            [
              79.94887548,
              10.64395761
            ],
            [
              79.94879218,
              10.64460617
            ],
            [
              79.94870235,
              10.64525231
            ],
            [
              79.94860602,
              10.64589582
            ],
            [
              79.94850322,
              10.64653649
            ],
            [
              79.94836669,
              10.64735363
            ],
            [
              79.94825647,
              10.64799726
            ],
            [
              79.94815322,
              10.64858024
            ],
            [
              79.94805428,
              10.64911701
            ],
            [
              79.94795446,
              10.64963475
            ],
            [
              79.9478551,
              10.65012566
            ],
            [
              79.94775511,
              10.65059498
            ],
            [
              79.94765385,
              10.65104576
            ],
            [
              79.94754748,
              10.65149394
            ],
            [
              79.94743872,
              10.65192687
            ],
            [
              79.9473272,
              10.65234608
            ],
            [
              79.94721261,
              10.65275266
            ],
            [
              79.94709463,
              10.65314779
            ],
            [
              79.9469731,
              10.65353195
            ],
            [
              79.94684782,
              10.65390576
            ],
            [
              79.94671863,
              10.65426974
            ],
            [
              79.94664494,
              10.65446464
            ],
            [
              79.94656619,
              10.65465972
            ],
            [
              79.94648234,
              10.65485506
            ],
            [
              79.94639335,
              10.65505077
            ],
            [
              79.94629918,
              10.65524693
            ],
            [
              79.94619975,
              10.6554437
            ],
            [
              79.94609501,
              10.6556412
            ],
            [
              79.94598487,
              10.65583959
            ],
            [
              79.94586941,
              10.65603873
            ],
            [
              79.94574838,
              10.65623911
            ],
            [
              79.94562164,
              10.65644092
            ],
            [
              79.94548904,
              10.65664441
            ],
            [
              79.94535046,
              10.65684978
            ],
            [
              79.94520564,
              10.65705741
            ],
            [
              79.94505434,
              10.65726765
            ],
            [
              79.94489622,
              10.65748096
            ],
            [
              79.94476434,
              10.65765446
            ],
            [
              79.9446276,
              10.65783058
            ],
            [
              79.94448569,
              10.6580097
            ],
            [
              79.94433826,
              10.6581923
            ],
            [
              79.94418504,
              10.65837869
            ],
            [
              79.94402523,
              10.65856985
            ],
            [
              79.94385809,
              10.65876669
            ],
            [
              79.94368248,
              10.65897054
            ],
            [
              79.94337662,
              10.65931959
            ],
            [
              79.94303174,
              10.65970628
            ],
            [
              79.94269654,
              10.66007754
            ],
            [
              79.94187298,
              10.66098454
            ],
            [
              79.94144553,
              10.66146053
            ],
            [
              79.94122969,
              10.66170431
            ],
            [
              79.9410291,
              10.66193372
            ],
            [
              79.94084029,
              10.66215275
            ],
            [
              79.94066145,
              10.66236349
            ],
            [
              79.94046876,
              10.66259475
            ],
            [
              79.94028575,
              10.66281908
            ],
            [
              79.94011138,
              10.66303776
            ],
            [
              79.93994496,
              10.66325168
            ],
            [
              79.93978572,
              10.66346181
            ],
            [
              79.93963343,
              10.66366848
            ],
            [
              79.93948771,
              10.66387221
            ],
            [
              79.93934829,
              10.66407337
            ],
            [
              79.93920514,
              10.66428716
            ],
            [
              79.93906875,
              10.66449876
            ],
            [
              79.9389389,
              10.66470849
            ],
            [
              79.93881544,
              10.6649166
            ],
            [
              79.93869819,
              10.66512339
            ],
            [
              79.93858706,
              10.66532901
            ],
            [
              79.93848195,
              10.66553367
            ],
            [
              79.93838278,
              10.66573751
            ],
            [
              79.93828938,
              10.66594092
            ],
            [
              79.93820179,
              10.66614381
            ],
            [
              79.93811995,
              10.66634631
            ],
            [
              79.93804382,
              10.66654854
            ],
            [
              79.93797335,
              10.66675061
            ],
            [
              79.93790852,
              10.66695262
            ],
            [
              79.93784929,
              10.66715464
            ],
            [
              79.93779565,
              10.66735677
            ],
            [
              79.93775655,
              10.66752684
            ],
            [
              79.93772314,
              10.66770351
            ],
            [
              79.93769537,
              10.66788713
            ],
            [
              79.93767315,
              10.66807816
            ],
            [
              79.93765645,
              10.66827691
            ],
            [
              79.93764517,
              10.66848435
            ],
            [
              79.93763925,
              10.66870136
            ],
            [
              79.93763867,
              10.66892932
            ],
            [
              79.93764226,
              10.66912904
            ],
            [
              79.93764958,
              10.66933923
            ],
            [
              79.93766069,
              10.66956194
            ],
            [
              79.93767581,
              10.66980123
            ],
            [
              79.93771131,
              10.67025828
            ],
            [
              79.93778523,
              10.67109209
            ],
            [
              79.93781232,
              10.67141542
            ],
            [
              79.93783629,
              10.67174298
            ],
            [
              79.93785319,
              10.67203474
            ],
            [
              79.9378603,
              10.67219919
            ],
            [
              79.93786515,
              10.67235634
            ],
            [
              79.93786777,
              10.67250723
            ],
            [
              79.93786816,
              10.67265255
            ],
            [
              79.93786634,
              10.67279305
            ],
            [
              79.93786229,
              10.67292896
            ],
            [
              79.93785599,
              10.67306064
            ],
            [
              79.93784744,
              10.67318839
            ],
            [
              79.93783393,
              10.67333929
            ],
            [
              79.93781701,
              10.67348503
            ],
            [
              79.93779663,
              10.6736259
            ],
            [
              79.93777278,
              10.67376215
            ],
            [
              79.9377454,
              10.67389402
            ],
            [
              79.93771445,
              10.67402164
            ],
            [
              79.93767992,
              10.67414516
            ],
            [
              79.93764176,
              10.67426471
            ],
            [
              79.93759987,
              10.67438056
            ],
            [
              79.93755426,
              10.67449263
            ],
            [
              79.93750492,
              10.67460102
            ],
            [
              79.93745179,
              10.67470579
            ],
            [
              79.93739484,
              10.67480703
            ],
            [
              79.93733405,
              10.67490478
            ],
            [
              79.93726937,
              10.6749991
            ],
            [
              79.93720078,
              10.67509002
            ],
            [
              79.93713064,
              10.67517435
            ],
            [
              79.93705447,
              10.67525751
            ],
            [
              79.93697213,
              10.67533964
            ],
            [
              79.93688343,
              10.67542094
            ],
            [
              79.93678825,
              10.67550153
            ],
            [
              79.93668619,
              10.67558176
            ],
            [
              79.93657686,
              10.67566193
            ],
            [
              79.9364597,
              10.67574246
            ],
            [
              79.93634511,
              10.67581683
            ],
            [
              79.93622247,
              10.6758925
            ],
            [
              79.93609063,
              10.67597019
            ],
            [
              79.93594737,
              10.6760512
            ],
            [
              79.93581009,
              10.67612626
            ],
            [
              79.93565596,
              10.67620835
            ],
            [
              79.93508157,
              10.67650661
            ],
            [
              79.93484683,
              10.67663099
            ],
            [
              79.93460722,
              10.6767636
            ],
            [
              79.93449974,
              10.67682586
            ],
            [
              79.93439863,
              10.67688649
            ],
            [
              79.93428023,
              10.67696053
            ],
            [
              79.93416936,
              10.67703348
            ],
            [
              79.93406524,
              10.67710584
            ],
            [
              79.93396739,
              10.67717797
            ],
            [
              79.93387527,
              10.67725024
            ],
            [
              79.93378875,
              10.67732279
            ],
            [
              79.93370758,
              10.67739582
            ],
            [
              79.93363159,
              10.67746948
            ],
            [
              79.93349302,
              10.67761219
            ],
            [
              79.93335826,
              10.67775716
            ],
            [
              79.9332273,
              10.67790438
            ],
            [
              79.93310016,
              10.67805386
            ],
            [
              79.93297682,
              10.6782056
            ],
            [
              79.9328573,
              10.67835959
            ],
            [
              79.93274158,
              10.67851583
            ],
            [
              79.93262967,
              10.67867434
            ],
            [
              79.93252157,
              10.6788351
            ],
            [
              79.93241728,
              10.67899811
            ],
            [
              79.9323168,
              10.67916338
            ],
            [
              79.93222013,
              10.67933091
            ],
            [
              79.93212726,
              10.6795007
            ],
            [
              79.93203821,
              10.67967274
            ],
            [
              79.93195296,
              10.67984703
            ],
            [
              79.93187152,
              10.68002359
            ],
            [
              79.9317939,
              10.68020239
            ],
            [
              79.93172008,
              10.68038346
            ],
            [
              79.93165007,
              10.68056678
            ],
            [
              79.93158386,
              10.68075236
            ],
            [
              79.93152147,
              10.68094019
            ],
            [
              79.93146289,
              10.68113028
            ],
            [
              79.93140811,
              10.68132263
            ],
            [
              79.93135715,
              10.68151723
            ],
            [
              79.93130999,
              10.68171409
            ],
            [
              79.93126664,
              10.6819132
            ],
            [
              79.93122711,
              10.68211457
            ],
            [
              79.93119138,
              10.6823182
            ],
            [
              79.93115946,
              10.68252408
            ],
            [
              79.93113134,
              10.68273222
            ],
            [
              79.93110704,
              10.68294262
            ],
            [
              79.93108655,
              10.68315527
            ],
            [
              79.93106986,
              10.68337018
            ],
            [
              79.93105699,
              10.68358734
            ],
            [
              79.93104792,
              10.68380676
            ],
            [
              79.93104266,
              10.68402844
            ],
            [
              79.93104121,
              10.68425237
            ],
            [
              79.93104357,
              10.68447856
            ],
            [
              79.93104974,
              10.684707
            ],
            [
              79.93105972,
              10.68493771
            ],
            [
              79.9310735,
              10.68517066
            ],
            [
              79.9310911,
              10.68540588
            ],
            [
              79.9311125,
              10.68564335
            ],
            [
              79.93113772,
              10.68588307
            ],
            [
              79.93116674,
              10.68612505
            ],
            [
              79.93119957,
              10.68636929
            ],
            [
              79.93123621,
              10.68661579
            ],
            [
              79.93127666,
              10.68686454
            ],
            [
              79.93132092,
              10.68711554
            ],
            [
              79.93136898,
              10.68736881
            ],
            [
              79.93142086,
              10.68762432
            ],
            [
              79.93147654,
              10.6878821
            ],
            [
              79.93153604,
              10.68814213
            ],
            [
              79.93159934,
              10.68840442
            ],
            [
              79.93166645,
              10.68866896
            ],
            [
              79.93173737,
              10.68893576
            ],
            [
              79.9318121,
              10.68920482
            ],
            [
              79.93189064,
              10.68947613
            ],
            [
              79.93197299,
              10.6897497
            ],
            [
              79.93205915,
              10.69002552
            ],
            [
              79.93214911,
              10.69030361
            ],
            [
              79.93224289,
              10.69058394
            ],
            [
              79.93234047,
              10.69086654
            ],
            [
              79.93244186,
              10.69115138
            ]
          ]
        ]
      },
      "properties": {
        "id": "incois-2026-250-046",
        "name": "INCOIS PFZ 046",
        "valid_from": "2026-09-07T00:00:00+05:30",
        "valid_until": "2026-09-08T00:00:00+05:30",
        "source": "cached INCOIS PFZ sample",
        "source_reference": "https://incois.gov.in/geoserver/PFZ_Automation/ows",
        "fetched_at": "2026-09-08T05:15:29.541014Z",
        "expires_at": "2026-09-08T00:00:00+05:30",
        "mode": "demo",
        "is_stale": false,
        "freshness_minutes": 0.0,
        "distance_km": null,
        "metadata": {
          "provider_properties": {
            "SECTORBOUN": 8,
            "SECTORBO_1": 9,
            "SECTORNAME": "",
            "Julian_day": "250",
            "Sno": "046",
            "Year": 2026,
            "UID": 2026250046.0,
            "Length": 10.5551677175
          },
          "advisory_reference": "https://incois.gov.in/MarineFisheries/TextDataHome",
          "forecast_date": "7 SEP 2026",
          "valid_upto_date": "8 SEP 2026",
          "validity_precision": "date",
          "validity_policy": "Conservative expiry at start of valid-upto date in Asia/Kolkata; exact hour is unpublished",
          "quality": "official_advisory",
          "original_source": "INCOIS PFZ WFS"
        }
      }
    },
    {
      "type": "Feature",
      "id": "incois-2026-250-045",
      "geometry": {
        "type": "MultiLineString",
        "coordinates": [
          [
            [
              79.91757023,
              10.47759476
            ],
            [
              79.9175782,
              10.47794423
            ],
            [
              79.91759046,
              10.47829153
            ],
            [
              79.917607,
              10.47863669
            ],
            [
              79.91762782,
              10.47897968
            ],
            [
              79.91765292,
              10.47932052
            ],
            [
              79.91768231,
              10.47965919
            ],
            [
              79.91771598,
              10.47999571
            ],
            [
              79.91775393,
              10.48033008
            ],
            [
              79.91779617,
              10.48066228
            ],
            [
              79.91784269,
              10.48099233
            ],
            [
              79.91789349,
              10.48132022
            ],
            [
              79.91794857,
              10.48164595
            ],
            [
              79.91800794,
              10.48196952
            ],
            [
              79.91807159,
              10.48229094
            ],
            [
              79.91813952,
              10.4826102
            ],
            [
              79.91821174,
              10.4829273
            ],
            [
              79.91828824,
              10.48324224
            ],
            [
              79.91836902,
              10.48355503
            ],
            [
              79.91845409,
              10.48386566
            ],
            [
              79.91854344,
              10.48417413
            ],
            [
              79.91863707,
              10.48448044
            ],
            [
              79.91873498,
              10.48478459
            ],
            [
              79.91883718,
              10.48508659
            ],
            [
              79.91894366,
              10.48538643
            ],
            [
              79.91905442,
              10.48568411
            ],
            [
              79.91916947,
              10.48597964
            ],
            [
              79.9192888,
              10.486273
            ],
            [
              79.91941241,
              10.48656421
            ],
            [
              79.91954031,
              10.48685326
            ],
            [
              79.91967249,
              10.48714016
            ],
            [
              79.91980895,
              10.48742489
            ],
            [
              79.91994969,
              10.48770747
            ],
            [
              79.92000502,
              10.48781319
            ],
            [
              79.92006363,
              10.48791876
            ],
            [
              79.92012553,
              10.48802424
            ],
            [
              79.92019076,
              10.48812968
            ],
            [
              79.92025935,
              10.48823513
            ],
            [
              79.92033135,
              10.48834066
            ],
            [
              79.92040681,
              10.48844634
            ],
            [
              79.92048577,
              10.48855225
            ],
            [
              79.92056819,
              10.48865833
            ],
            [
              79.92065424,
              10.48876481
            ],
            [
              79.92074401,
              10.4888718
            ],
            [
              79.9208376,
              10.48897942
            ],
            [
              79.9209351,
              10.48908777
            ],
            [
              79.92103668,
              10.48919705
            ],
            [
              79.9211425,
              10.48930742
            ],
            [
              79.92125278,
              10.48941912
            ],
            [
              79.92144369,
              10.4896056
            ],
            [
              79.92164877,
              10.48979782
            ],
            [
              79.92187007,
              10.4899977
            ],
            [
              79.92211173,
              10.49020898
            ],
            [
              79.92233031,
              10.49039531
            ],
            [
              79.92257634,
              10.49060112
            ],
            [
              79.92342298,
              10.49129695
            ],
            [
              79.92374497,
              10.49156458
            ],
            [
              79.92406494,
              10.49183705
            ],
            [
              79.92434605,
              10.49208483
            ],
            [
              79.92449964,
              10.49222471
            ],
            [
              79.92464477,
              10.49236053
            ],
            [
              79.92478238,
              10.49249317
            ],
            [
              79.92491305,
              10.49262319
            ],
            [
              79.92503744,
              10.49275125
            ],
            [
              79.92515574,
              10.49287757
            ],
            [
              79.92526827,
              10.49300247
            ],
            [
              79.92537525,
              10.49312621
            ],
            [
              79.92549512,
              10.49327166
            ],
            [
              79.92560774,
              10.49341611
            ],
            [
              79.92571332,
              10.49355985
            ],
            [
              79.92581203,
              10.49370309
            ],
            [
              79.92590402,
              10.49384607
            ],
            [
              79.92598939,
              10.49398894
            ],
            [
              79.92606823,
              10.49413185
            ],
            [
              79.92614061,
              10.49427494
            ],
            [
              79.92620669,
              10.49441852
            ],
            [
              79.92626641,
              10.49456253
            ],
            [
              79.92631982,
              10.49470705
            ],
            [
              79.92636695,
              10.4948522
            ],
            [
              79.92640784,
              10.49499807
            ],
            [
              79.9264425,
              10.49514473
            ],
            [
              79.92647095,
              10.49529226
            ],
            [
              79.92649321,
              10.49544072
            ],
            [
              79.92650908,
              10.49558632
            ],
            [
              79.92652027,
              10.49574027
            ],
            [
              79.9265269,
              10.49590407
            ],
            [
              79.9265291,
              10.49608067
            ],
            [
              79.92652755,
              10.49624287
            ],
            [
              79.92652281,
              10.49642412
            ],
            [
              79.92649594,
              10.4970693
            ],
            [
              79.9264881,
              10.49732599
            ],
            [
              79.92648624,
              10.49746169
            ],
            [
              79.92648646,
              10.4975879
            ],
            [
              79.92648877,
              10.49770699
            ],
            [
              79.92649321,
              10.49782018
            ],
            [
              79.92650697,
              10.49804225
            ],
            [
              79.92652607,
              10.49826306
            ],
            [
              79.92655052,
              10.49848263
            ],
            [
              79.92658032,
              10.49870097
            ],
            [
              79.92661547,
              10.49891812
            ],
            [
              79.92665597,
              10.4991341
            ],
            [
              79.92670183,
              10.49934895
            ],
            [
              79.92675306,
              10.49956268
            ],
            [
              79.92680966,
              10.49977531
            ],
            [
              79.92687164,
              10.49998689
            ],
            [
              79.92693901,
              10.50019745
            ],
            [
              79.92701179,
              10.50040703
            ],
            [
              79.92708997,
              10.50061565
            ],
            [
              79.92717358,
              10.50082336
            ],
            [
              79.92726263,
              10.50103018
            ],
            [
              79.92735714,
              10.50123617
            ],
            [
              79.92745699,
              10.5014411
            ],
            [
              79.92756234,
              10.50164528
            ],
            [
              79.92767318,
              10.50184875
            ],
            [
              79.92778956,
              10.50205155
            ],
            [
              79.9279115,
              10.50225373
            ],
            [
              79.92803902,
              10.50245534
            ],
            [
              79.92817217,
              10.50265644
            ],
            [
              79.92831098,
              10.50285709
            ],
            [
              79.92845545,
              10.50305729
            ],
            [
              79.92860567,
              10.50325715
            ],
            [
              79.92876169,
              10.50345676
            ],
            [
              79.92892356,
              10.50365617
            ],
            [
              79.92909134,
              10.50385546
            ],
            [
              79.9292651,
              10.50405473
            ],
            [
              79.92944493,
              10.50425405
            ],
            [
              79.92963091,
              10.50445353
            ],
            [
              79.92979837,
              10.50462788
            ],
            [
              79.92997066,
              10.5048025
            ],
            [
              79.93014787,
              10.50497748
            ],
            [
              79.93033007,
              10.50515289
            ],
            [
              79.93051736,
              10.50532884
            ],
            [
              79.93070987,
              10.50550542
            ],
            [
              79.9309077,
              10.50568275
            ],
            [
              79.93111101,
              10.50586097
            ],
            [
              79.93131968,
              10.50603997
            ],
            [
              79.93153415,
              10.50622015
            ],
            [
              79.93175461,
              10.50640165
            ],
            [
              79.9319813,
              10.50658469
            ],
            [
              79.93221442,
              10.50676942
            ],
            [
              79.93245436,
              10.50695615
            ],
            [
              79.93270146,
              10.50714516
            ],
            [
              79.9329562,
              10.50733679
            ],
            [
              79.93341301,
              10.50767317
            ],
            [
              79.9338975,
              10.50802113
            ],
            [
              79.9344144,
              10.50838408
            ],
            [
              79.93497292,
              10.50876848
            ],
            [
              79.9354914,
              10.50911968
            ],
            [
              79.9360717,
              10.50950799
            ],
            [
              79.93665167,
              10.50989273
            ],
            [
              79.93817874,
              10.51090166
            ],
            [
              79.93903146,
              10.51147059
            ],
            [
              79.93948389,
              10.51177637
            ],
            [
              79.93990438,
              10.51206393
            ],
            [
              79.94030084,
              10.51233871
            ],
            [
              79.94067729,
              10.51260347
            ],
            [
              79.94111701,
              10.51291832
            ],
            [
              79.94153488,
              10.51322398
            ],
            [
              79.94193367,
              10.51352251
            ],
            [
              79.94231521,
              10.51381526
            ],
            [
              79.94268146,
              10.51410375
            ],
            [
              79.94303301,
              10.51438846
            ],
            [
              79.94337079,
              10.51467015
            ],
            [
              79.94369549,
              10.5149494
            ],
            [
              79.94388951,
              10.51512065
            ],
            [
              79.9440789,
              10.51529127
            ],
            [
              79.94426376,
              10.51546135
            ],
            [
              79.9444442,
              10.51563099
            ],
            [
              79.94462031,
              10.51580028
            ],
            [
              79.94479215,
              10.51596927
            ],
            [
              79.9449598,
              10.51613804
            ],
            [
              79.94512332,
              10.51630665
            ],
            [
              79.94528281,
              10.51647521
            ],
            [
              79.94543828,
              10.51664374
            ],
            [
              79.94558977,
              10.51681227
            ],
            [
              79.94573734,
              10.51698086
            ],
            [
              79.94588101,
              10.51714955
            ],
            [
              79.94602083,
              10.5173184
            ],
            [
              79.94615682,
              10.51748743
            ],
            [
              79.94628903,
              10.51765668
            ],
            [
              79.94641765,
              10.51782645
            ],
            [
              79.94654253,
              10.51799651
            ],
            [
              79.94666368,
              10.5181669
            ],
            [
              79.94678114,
              10.51833765
            ],
            [
              79.94689492,
              10.51850881
            ],
            [
              79.94700504,
              10.51868038
            ],
            [
              79.94711152,
              10.5188524
            ],
            [
              79.94721438,
              10.51902491
            ],
            [
              79.94731363,
              10.51919793
            ],
            [
              79.94740929,
              10.51937147
            ],
            [
              79.94750136,
              10.51954557
            ],
            [
              79.94758986,
              10.51972024
            ],
            [
              79.9476748,
              10.5198955
            ],
            [
              79.94775619,
              10.52007138
            ],
            [
              79.94783404,
              10.52024789
            ],
            [
              79.94790836,
              10.52042506
            ],
            [
              79.94802108,
              10.52070511
            ],
            [
              79.94813205,
              10.52098943
            ],
            [
              79.9482413,
              10.5212781
            ],
            [
              79.94834886,
              10.52157117
            ],
            [
              79.94845474,
              10.52186872
            ],
            [
              79.94855899,
              10.52217085
            ],
            [
              79.94866163,
              10.52247764
            ],
            [
              79.94876271,
              10.5227892
            ],
            [
              79.9488622,
              10.52310549
            ],
            [
              79.9489602,
              10.52342678
            ],
            [
              79.94905675,
              10.5237532
            ],
            [
              79.94915189,
              10.52408492
            ],
            [
              79.94924567,
              10.52442208
            ],
            [
              79.94933815,
              10.52476489
            ],
            [
              79.94942938,
              10.52511357
            ],
            [
              79.94951943,
              10.52546837
            ],
            [
              79.94960686,
              10.52582331
            ],
            [
              79.94969329,
              10.52618474
            ],
            [
              79.94977882,
              10.52655301
            ],
            [
              79.94986353,
              10.52692854
            ],
            [
              79.9499475,
              10.52731166
            ],
            [
              79.9500309,
              10.5277031
            ],
            [
              79.95011386,
              10.52810351
            ],
            [
              79.95019656,
              10.52851378
            ],
            [
              79.9502783,
              10.52893013
            ],
            [
              79.95036023,
              10.52935841
            ],
            [
              79.95044268,
              10.52980017
            ],
            [
              79.95052606,
              10.53025773
            ],
            [
              79.95069711,
              10.53122818
            ],
            [
              79.95088268,
              10.53232236
            ],
            [
              79.95095432,
              10.5327594
            ],
            [
              79.9510234,
              10.53319673
            ],
            [
              79.9510899,
              10.53363435
            ],
            [
              79.95115383,
              10.53407226
            ],
            [
              79.95121519,
              10.53451045
            ],
            [
              79.95127399,
              10.53494894
            ],
            [
              79.95133021,
              10.53538772
            ],
            [
              79.95138387,
              10.53582678
            ],
            [
              79.95143495,
              10.53626613
            ],
            [
              79.95148347,
              10.53670578
            ],
            [
              79.95152942,
              10.53714571
            ],
            [
              79.95157279,
              10.53758593
            ],
            [
              79.9516136,
              10.53802644
            ],
            [
              79.95165184,
              10.53846724
            ],
            [
              79.95168751,
              10.53890833
            ],
            [
              79.95172061,
              10.5393497
            ],
            [
              79.95175114,
              10.53979137
            ],
            [
              79.9517791,
              10.54023333
            ],
            [
              79.95180449,
              10.54067557
            ],
            [
              79.95182732,
              10.54111811
            ],
            [
              79.95184757,
              10.54156093
            ],
            [
              79.95186525,
              10.54200404
            ],
            [
              79.95188037,
              10.54244744
            ],
            [
              79.95189291,
              10.54289113
            ],
            [
              79.95190289,
              10.54333511
            ],
            [
              79.95191029,
              10.54377938
            ],
            [
              79.95191513,
              10.54422394
            ],
            [
              79.9519174,
              10.54466879
            ],
            [
              79.9519171,
              10.54511393
            ],
            [
              79.95191423,
              10.54555935
            ],
            [
              79.95190878,
              10.54600507
            ],
            [
              79.95190077,
              10.54645107
            ],
            [
              79.95189019,
              10.54689737
            ],
            [
              79.95187705,
              10.54734395
            ],
            [
              79.95186133,
              10.54779082
            ],
            [
              79.95184304,
              10.54823798
            ],
            [
              79.95182218,
              10.54868543
            ],
            [
              79.95179876,
              10.54913317
            ],
            [
              79.95177276,
              10.5495812
            ],
            [
              79.9517442,
              10.55002952
            ],
            [
              79.95171306,
              10.55047812
            ],
            [
              79.95167936,
              10.55092702
            ],
            [
              79.95164308,
              10.55137621
            ],
            [
              79.95160424,
              10.55182568
            ],
            [
              79.95156283,
              10.55227544
            ],
            [
              79.95151885,
              10.5527255
            ],
            [
              79.9514723,
              10.55317584
            ],
            [
              79.95142318,
              10.55362647
            ],
            [
              79.95137149,
              10.55407739
            ],
            [
              79.95131723,
              10.5545286
            ],
            [
              79.9512604,
              10.5549801
            ],
            [
              79.951201,
              10.55543189
            ],
            [
              79.95113904,
              10.55588396
            ],
            [
              79.9510745,
              10.55633633
            ],
            [
              79.95100739,
              10.55678898
            ],
            [
              79.95093772,
              10.55724193
            ],
            [
              79.95086547,
              10.55769516
            ],
            [
              79.95079066,
              10.55814868
            ],
            [
              79.95071328,
              10.5586025
            ],
            [
              79.95063332,
              10.5590566
            ],
            [
              79.9505508,
              10.55951099
            ],
            [
              79.95046571,
              10.55996567
            ],
            [
              79.95037805,
              10.56042064
            ],
            [
              79.95028782,
              10.56087589
            ]
          ]
        ]
      },
      "properties": {
        "id": "incois-2026-250-045",
        "name": "INCOIS PFZ 045",
        "valid_from": "2026-09-07T00:00:00+05:30",
        "valid_until": "2026-09-08T00:00:00+05:30",
        "source": "cached INCOIS PFZ sample",
        "source_reference": "https://incois.gov.in/geoserver/PFZ_Automation/ows",
        "fetched_at": "2026-09-08T05:15:29.541014Z",
        "expires_at": "2026-09-08T00:00:00+05:30",
        "mode": "demo",
        "is_stale": false,
        "freshness_minutes": 0.0,
        "distance_km": null,
        "metadata": {
          "provider_properties": {
            "SECTORBOUN": 8,
            "SECTORBO_1": 9,
            "SECTORNAME": "",
            "Julian_day": "250",
            "Sno": "045",
            "Year": 2026,
            "UID": 2026250045.0,
            "Length": 10.6204697347
          },
          "advisory_reference": "https://incois.gov.in/MarineFisheries/TextDataHome",
          "forecast_date": "7 SEP 2026",
          "valid_upto_date": "8 SEP 2026",
          "validity_precision": "date",
          "validity_policy": "Conservative expiry at start of valid-upto date in Asia/Kolkata; exact hour is unpublished",
          "quality": "official_advisory",
          "original_source": "INCOIS PFZ WFS"
        }
      }
    }
  ],
  "metadata": {
    "mode": "demo",
    "recorded_at": "2026-09-08T05:15:29.541014+00:00",
    "replay_time": "2026-09-07T06:00:00Z",
    "description": "Three nearest official INCOIS PFZ line geometries; timestamps and coordinates preserved."
  }
}